{
    "links": {
        "self": "http://www.neowsapp.com/rest/v1/neo/3428697?api_key=iIulBulltgU6a56xZRHN4H3l9WmuAYTsLGpBGhQ2"
    },
    "id": "3428697",
    "neo_reference_id": "3428697",
    "name": "(2008 TC)",
    "designation": "2008 TC",
    "nasa_jpl_url": "http://ssd.jpl.nasa.gov/sbdb.cgi?sstr=3428697",
    "absolute_magnitude_h": 23.7,
    "estimated_diameter": {
        "kilometers": {
            "estimated_diameter_min": 0.0483676488,
            "estimated_diameter_max": 0.1081533507
        },
        "meters": {
            "estimated_diameter_min": 48.3676488219,
            "estimated_diameter_max": 108.1533506775
        },
        "miles": {
            "estimated_diameter_min": 0.0300542543,
            "estimated_diameter_max": 0.0672033557
        },
        "feet": {
            "estimated_diameter_min": 158.6865169607,
            "estimated_diameter_max": 354.8338390368
        }
    },
    "is_potentially_hazardous_asteroid": false,
    "close_approach_data": [
        {
            "close_approach_date": "2008-09-09",
            "close_approach_date_full": "2008-Sep-09 14:01",
            "epoch_date_close_approach": 1220968860000,
            "relative_velocity": {
                "kilometers_per_second": "9.5770207774",
                "kilometers_per_hour": "34477.2747986886",
                "miles_per_hour": "21422.8377769962"
            },
            "miss_distance": {
                "astronomical": "0.105817359",
                "lunar": "41.162952651",
                "kilometers": "15830051.51542533",
                "miles": "9836337.894636354"
            },
            "orbiting_body": "Earth"
        }
    ],
    "orbital_data": {
        "orbit_id": "8",
        "orbit_determination_date": "2017-04-06 09:02:47",
        "first_observation_date": "2008-10-01",
        "last_observation_date": "2008-10-03",
        "data_arc_in_days": 2,
        "observations_used": 24,
        "orbit_uncertainty": "9",
        "minimum_orbit_intersection": ".0479476",
        "jupiter_tisserand_invariant": "3.618",
        "epoch_osculation": "2454741.5",
        "eccentricity": ".4991617303812237",
        "semi_major_axis": "2.056686330317515",
        "inclination": "2.670435261085762",
        "ascending_node_longitude": "211.2255393496124",
        "orbital_period": "1077.334379716987",
        "perihelion_distance": "1.030067222824815",
        "perihelion_argument": "106.3843857991255",
        "aphelion_distance": "3.083305437810214",
        "perihelion_time": "2454697.011013320988",
        "mean_anomaly": "14.86635487178242",
        "mean_motion": ".3341580912832013",
        "equinox": "J2000",
        "orbit_class": {
            "orbit_class_type": "AMO",
            "orbit_class_description": "Near-Earth asteroid orbits similar to that of 1221 Amor",
            "orbit_class_range": "1.017 AU < q (perihelion) < 1.3 AU"
        }
    },
    "is_sentry_object": false
}